[{"OBJECT_NAME":"MONITOR-3 (RS58S)","OBJECT_ID":"2023-091Q","EPOCH":"2026-03-09T23:24:02.583360","MEAN_MOTION":15.25747617,"ECCENTRICITY":0.0013676,"INCLINATION":97.5199,"RA_OF_ASC_NODE":131.7909,"ARG_OF_PERICENTER":91.0881,"MEAN_ANOMALY":269.1924,"EPHEMERIS_TYPE":0,"CLASSIFICATION_TYPE":"U","NORAD_CAT_ID":57180,"ELEMENT_SET_NO":999,"REV_AT_EPOCH":14915,"BSTAR":0.00054974842,"MEAN_MOTION_DOT":0.00014004,"MEAN_MOTION_DDOT":0},{"OBJECT_NAME":"STARLINK-30286","OBJECT_ID":"2023-122R","EPOCH":"2026-03-09T22:00:01.999584","MEAN_MOTION":15.26734186,"ECCENTRICITY":0.00012555,"INCLINATION":43.0005,"RA_OF_ASC_NODE":91.0287,"ARG_OF_PERICENTER":253.8904,"MEAN_ANOMALY":114.3765,"EPHEMERIS_TYPE":0,"CLASSIFICATION_TYPE":"U","NORAD_CAT_ID":57647,"ELEMENT_SET_NO":999,"REV_AT_EPOCH":578,"BSTAR":0.0015305228,"MEAN_MOTION_DOT":0.00041016,"MEAN_MOTION_DDOT":0}]
